NORAD_CAT_ID,OBJECT_NAME,OBJECT_TYPE,EPOCH,MEAN_MOTION,ECCENTRICITY,INCLINATION,RA_OF_ASC_NODE,ARG_OF_PERICENTER,MEAN_ANOMALY,BSTAR,MEAN_MOTION_DOT,MEAN_MOTION_DDOT,TLE_LINE0,TLE_LINE1,TLE_LINE2,SEMIMAJOR_AXIS,PERIOD,APOGEE,PERIGEE,DECAYED
54170.0,STARLINK-5155,PAYLOAD,2023-03-08 20:45:47,15.08839714,0.0001172,53.2149,248.007,70.4911,289.6207,0.0016985,0.00026847,0.0,0 STARLINK-5155,1 54170U 22141P   23067.86512787  .00026847  00000-0  16985-2 0  9997,2 54170  53.2149 248.0070 0001172  70.4911 289.6207 15.08839714 20278,6917.881,95.438,540.557,538.935,0.0
54170.0,STARLINK-5155,PAYLOAD,2023-03-09 19:01:10,15.08848028,0.0001385,53.2162,243.8444,80.4525,279.6624,0.00061613,9.533e-05,0.0,0 STARLINK-5155,1 54170U 22141P   23068.79248701  .00009533  00000-0  61613-3 0  9994,2 54170  53.2162 243.8444 0001385  80.4525 279.6624 15.08848028 20404,6917.856,95.437,540.679,538.763,0.0
54170.0,STARLINK-5155,PAYLOAD,2023-03-09 20:36:33,15.08852231,0.0001235,53.2146,243.5454,74.0847,286.0281,0.00049217,7.556e-05,0.0,0 STARLINK-5155,1 54170U 22141P   23068.85872384  .00007556  00000-0  49217-3 0  9990,2 54170  53.2146 243.5454 0001235  74.0847 286.0281 15.08852231 20428,6917.843,95.437,540.562,538.854,0.0
54170.0,STARLINK-5155,PAYLOAD,2023-03-10 10:55:02,15.08844446,0.0001823,53.2145,240.8687,80.6063,279.5135,0.00031728,4.766e-05,0.0,0 STARLINK-5155,1 54170U 22141P   23069.45488960  .00004766  00000-0  31728-3 0  9998,2 54170  53.2145 240.8687 0001823  80.6063 279.5135 15.08844446 20504,6917.867,95.437,540.993,538.471,0.0
54170.0,STARLINK-5155,PAYLOAD,2023-03-10 18:51:58,15.08838268,0.0001307,53.2152,239.3842,86.2939,273.8202,6.272e-05,7.1e-06,0.0,0 STARLINK-5155,1 54170U 22141P   23069.78608991  .00000710  00000-0  62720-4 0  9994,2 54170  53.2152 239.3842 0001307  86.2939 273.8202 15.08838268 20562,6917.886,95.438,540.655,538.847,0.0
54170.0,STARLINK-5155,PAYLOAD,2023-03-11 10:45:49,15.08839509,0.0001429,53.2144,236.4111,71.5272,288.5875,0.00026225,3.888e-05,0.0,0 STARLINK-5155,1 54170U 22141P   23070.44849343  .00003888  00000-0  26225-3 0  9995,2 54170  53.2144 236.4111 0001429  71.5272 288.5875 15.08839509 20661,6917.882,95.438,540.735,538.758,0.0
54170.0,STARLINK-5155,PAYLOAD,2023-03-11 20:18:08,15.08842077,0.0001456,53.2147,234.6252,73.9541,286.1611,0.00045473,6.957e-05,0.0,0 STARLINK-5155,1 54170U 22141P   23070.84593392  .00006957  00000-0  45473-3 0  9995,2 54170  53.2147 234.6252 0001456  73.9541 286.1611 15.08842077 20728,6917.874,95.437,540.746,538.732,0.0
54170.0,STARLINK-5155,PAYLOAD,2023-03-11 21:53:31,15.08849703,8.64e-05,53.217,234.3263,80.7974,279.3116,0.00063666,9.862e-05,0.0,0 STARLINK-5155,1 54170U 22141P   23070.91217042  .00009862  00000-0  63666-3 0  9990,2 54170  53.2170 234.3263 0000864  80.7974 279.3116 15.08849703 20728,6917.851,95.437,540.313,539.118,0.0
54170.0,STARLINK-5155,PAYLOAD,2023-03-12 10:36:37,15.08836249,0.0001255,53.2159,231.9506,76.0162,284.097,0.00017146,2.442e-05,0.0,0 STARLINK-5155,1 54170U 22141P   23071.44209705  .00002442  00000-0  17146-3 0  9995,2 54170  53.2159 231.9506 0001255  76.0162 284.0970 15.08836249 20801,6917.892,95.438,540.625,538.889,0.0
54170.0,STARLINK-5155,PAYLOAD,2023-03-12 20:08:55,15.08846315,0.0001766,53.2147,230.1659,79.0583,281.0607,0.00033228,5.005e-05,0.0,0 STARLINK-5155,1 54170U 22141P   23071.83953511  .00005005  00000-0  33228-3 0  9996,2 54170  53.2147 230.1659 0001766  79.0583 281.0607 15.08846315 20871,6917.861,95.437,540.948,538.504,0.0
54170.0,STARLINK-5155,PAYLOAD,2023-03-12 21:44:18,15.08851303,0.0001798,53.2147,229.8699,68.321,291.7974,0.00044932,6.872e-05,0.0,0 STARLINK-5155,1 54170U 22141P   23071.90577394  .00006872  00000-0  44932-3 0  9992,2 54170  53.2147 229.8699 0001798  68.3210 291.7974 15.08851303 20871,6917.846,95.437,540.955,538.467,0.0
54170.0,STARLINK-5155,PAYLOAD,2023-03-13 10:27:24,15.08833304,0.0001079,53.2168,227.4887,85.22,274.8915,2.2219e-05,6.6e-07,0.0,0 STARLINK-5155,1 54170U 22141P   23072.43569782  .00000066  00000-0  22219-4 0  9997,2 54170  53.2168 227.4887 0001079  85.2200 274.8915 15.08833304 20953,6917.901,95.438,540.512,539.019,0.0
54170.0,STARLINK-5155,PAYLOAD,2023-03-14 10:18:11,15.0884595,0.0001488,53.2152,223.0295,89.0162,271.1001,0.00039026,5.929e-05,0.0,0 STARLINK-5155,1 54170U 22141P   23073.42929841  .00005929  00000-0  39026-3 0  9999,2 54170  53.2152 223.0295 0001488  89.0162 271.1001 15.08845950 21108,6917.862,95.437,540.757,538.698,0.0
54170.0,STARLINK-5155,PAYLOAD,2023-03-14 19:50:29,15.08863452,0.0001508,53.2142,221.2443,96.9422,263.1742,0.00093299,0.00014601,0.0,0 STARLINK-5155,1 54170U 22141P   23073.82673289  .00014601  00000-0  93299-3 0  9994,2 54170  53.2142 221.2443 0001508  96.9422 263.1742 15.08863452 21178,6917.809,95.436,540.717,538.631,0.0
54170.0,STARLINK-5155,PAYLOAD,2023-03-15 10:08:57,15.0885835,0.0001761,53.2137,218.567,94.6385,265.4808,0.00045586,6.978e-05,0.0,0 STARLINK-5155,1 54170U 22141P   23074.42288976  .00006978  00000-0  45586-3 0  9990,2 54170  53.2137 218.5670 0001761  94.6385 265.4808 15.08858350 21255,6917.824,95.436,540.908,538.471,0.0
54170.0,STARLINK-5155,PAYLOAD,2023-03-15 21:16:38,15.08876168,0.0001875,53.2129,216.4855,95.2457,264.8749,0.00077471,0.00012075,0.0,0 STARLINK-5155,1 54170U 22141P   23074.88655947  .00012075  00000-0  77471-3 0  9999,2 54170  53.2129 216.4855 0001875  95.2457 264.8749 15.08876168 21334,6917.77,95.435,540.932,538.338,0.0
54170.0,STARLINK-5155,PAYLOAD,2023-03-16 02:02:48,15.08814064,0.0001838,53.2131,215.5946,97.3573,262.7628,-0.0013687,-0.0002199,0.0,0 STARLINK-5155,1 54170U 22141P   23075.08528634 -.00021990  00000-0 -13687-2 0  9990,2 54170  53.2131 215.5946 0001838  97.3573 262.7628 15.08814064 21351,6917.96,95.439,541.096,538.553,0.0
54170.0,STARLINK-5155,PAYLOAD,2023-03-16 08:24:21,15.08814954,0.0001005,53.2148,214.4047,113.6379,246.4718,-0.00059264,-9.701e-05,0.0,0 STARLINK-5155,1 54170U 22141P   23075.35024751 -.00009701  00000-0 -59264-3 0  9999,2 54170  53.2148 214.4047 0001005 113.6379 246.4718 15.08814954 21392,6917.957,95.439,540.517,539.127,0.0
54170.0,STARLINK-5155,PAYLOAD,2023-03-16 16:21:17,15.08813623,8.1e-05,53.2141,212.9192,123.8195,236.2874,0.0015567,0.00024556,0.0,0 STARLINK-5155,1 54170U 22141P   23075.68145690  .00024556  00000-0  15567-2 0  9991,2 54170  53.2141 212.9192 0000810 123.8195 236.2874 15.08813623 21450,6917.961,95.439,540.386,539.266,0.0
54170.0,STARLINK-5155,PAYLOAD,2023-03-17 01:53:36,15.08840757,8.46e-05,53.2142,211.1346,101.3289,258.7798,0.0017152,0.00027115,0.0,0 STARLINK-5155,1 54170U 22141P   23076.07889957  .00027115  00000-0  17152-2 0  9992,2 54170  53.2142 211.1346 0000846 101.3289 258.7798 15.08840757 21505,6917.878,95.438,540.328,539.158,0.0
54170.0,STARLINK-5155,PAYLOAD,2023-03-17 09:50:33,15.08828185,0.0002055,53.2208,209.6491,95.4933,264.6293,0.00086647,0.00013524,0.0,0 STARLINK-5155,1 54170U 22141P   23076.41010763  .00013524  00000-0  86647-3 0  9996,2 54170  53.2208 209.6491 0002055  95.4933 264.6293 15.08828185 21556,6917.917,95.438,541.203,538.36,0.0
54170.0,STARLINK-5155,PAYLOAD,2023-03-17 17:47:29,15.08834268,0.0001987,53.2199,208.1625,93.3311,266.7909,0.00082024,0.00012788,0.0,0 STARLINK-5155,1 54170U 22141P   23076.74130955  .00012788  00000-0  82024-3 0  9994,2 54170  53.2199 208.1625 0001987  93.3311 266.7909 15.08834268 21611,6917.898,95.438,541.137,538.388,0.0
54170.0,STARLINK-5155,PAYLOAD,2023-03-18 12:52:06,15.08815207,0.0002176,53.2143,204.5925,101.4805,258.6431,-0.00092798,-0.00015017,0.0,0 STARLINK-5155,1 54170U 22141P   23077.53618980 -.00015017  00000-0 -92798-3 0  9990,2 54170  53.2143 204.5925 0002176 101.4805 258.6431 15.08815207 21727,6917.956,95.439,541.327,538.316,0.0
54170.0,STARLINK-5155,PAYLOAD,2023-03-18 17:38:15,15.08876668,0.0001416,53.2167,203.7018,95.0039,265.1115,0.0013245,0.00020875,0.0,0 STARLINK-5155,1 54170U 22141P   23077.73489682  .00020875  00000-0  13245-2 0  9992,2 54170  53.2167 203.7018 0001416  95.0039 265.1115 15.08876668 21753,6917.768,95.435,540.613,538.654,0.0
54170.0,STARLINK-5155,PAYLOAD,2023-03-19 01:35:11,15.08852611,0.0001986,53.218,202.214,77.0314,283.09,0.00018683,2.687e-05,0.0,0 STARLINK-5155,1 54170U 22141P   23078.06610061  .00002687  00000-0  18683-3 0  9999,2 54170  53.2180 202.2140 0001986  77.0314 283.0900 15.08852611 21805,6917.842,95.437,541.081,538.333,0.0
54170.0,STARLINK-5155,PAYLOAD,2023-03-19 14:18:15,15.08859061,0.0001417,53.2177,199.8352,88.696,271.4195,0.00056975,8.796e-05,0.0,0 STARLINK-5155,1 54170U 22141P   23078.59601538  .00008796  00000-0  56975-3 0  9999,2 54170  53.2177 199.8352 0001417  88.6960 271.4195 15.08859061 21893,6917.822,95.436,540.667,538.707,0.0
54170.0,STARLINK-5155,PAYLOAD,2023-03-19 19:04:24,15.08867667,0.0001412,53.2158,198.9424,79.3064,280.8087,0.0010485,0.00016451,0.0,0 STARLINK-5155,1 54170U 22141P   23078.79473220  .00016451  00000-0  10485-2 0  9998,2 54170  53.2158 198.9424 0001412  79.3064 280.8087 15.08867667 21928,6917.796,95.436,540.638,538.684,0.0
54170.0,STARLINK-5155,PAYLOAD,2023-03-20 01:25:57,15.088436,0.0001135,53.2171,197.755,73.6046,286.5071,0.00046917,7.188e-05,0.0,0 STARLINK-5155,1 54170U 22141P   23079.05969675  .00007188  00000-0  46917-3 0  9999,2 54170  53.2171 197.7550 0001135  73.6046 286.5071 15.08843600 21959,6917.869,95.437,540.52,538.949,0.0
54170.0,STARLINK-5155,PAYLOAD,2023-03-20 12:33:40,15.08827851,0.0001388,53.2168,195.6724,93.1818,266.9333,0.00074476,0.00011581,0.0,0 STARLINK-5155,1 54170U 22141P   23079.52338342  .00011581  00000-0  74476-3 0  9995,2 54170  53.2168 195.6724 0001388  93.1818 266.9333 15.08827851 22021,6917.918,95.438,540.743,538.822,0.0
54170.0,STARLINK-5155,PAYLOAD,2023-03-20 14:09:03,15.08833632,0.0001451,53.2165,195.374,93.9942,266.1216,0.00015459,2.173e-05,0.0,0 STARLINK-5155,1 54170U 22141P   23079.58962233  .00002173  00000-0  15459-3 0  9996,2 54170  53.2165 195.3740 0001451  93.9942 266.1216 15.08833632 22048,6917.9,95.438,540.769,538.761,0.0
